{
  "type": "FeatureCollection",
  "features": [
    {
      "type": "Feature",
      "properties": {
        "norad_id": 67133,
        "name": "KUIPER-00144",
        "group": "last-30-days",
        "lat": 43.80877569397964,
        "lon": -174.63197904003525,
        "alt_km": 449.2190045400548,
        "timestamp": "2025-12-27T10:28:57.518773+00:00",
        "meta_object_name": "KUIPER-00144",
        "meta_object_id": "2025-301A",
        "meta_epoch": "2025-12-27T03:43:19.382880",
        "meta_mean_motion": 15.35497564,
        "meta_eccentricity": 0.0006236,
        "meta_inclination": 51.8708,
        "meta_ra_of_asc_node": 55.6194,
        "meta_arg_of_pericenter": 124.7147,
        "meta_mean_anomaly": 235.4427,
        "meta_ephemeris_type": 0,
        "meta_classification_type": "U",
        "meta_norad_cat_id": 67133,
        "meta_element_set_no": 999,
        "meta_rev_at_epoch": 258,
        "meta_bstar": 0.0007299,
        "meta_mean_motion_dot": 0.00025279,
        "meta_mean_motion_ddot": 0,
        "tle_line1": "1 67133U 25301A   25361.15508545  .00025279  00000+0  72990-3 0  9995",
        "tle_line2": "2 67133  51.8708  55.6194 0006236 124.7147 235.4427 15.35497564  2585"
      },
      "geometry": {
        "type": "Point",
        "coordinates": [
          -174.63197904003525,
          43.80877569397964
        ]
      }
    },
    {
      "type": "Feature",
      "properties": {
        "norad_id": 67134,
        "name": "KUIPER-00164",
        "group": "last-30-days",
        "lat": 24.99059943336857,
        "lon": -147.274841141364,
        "alt_km": 452.74382246829464,
        "timestamp": "2025-12-27T10:28:57.518783+00:00",
        "meta_object_name": "KUIPER-00164",
        "meta_object_id": "2025-301B",
        "meta_epoch": "2025-12-27T03:35:55.279104",
        "meta_mean_motion": 15.36181048,
        "meta_eccentricity": 0.0003211,
        "meta_inclination": 51.873,
        "meta_ra_of_asc_node": 55.5848,
        "meta_arg_of_pericenter": 105.9096,
        "meta_mean_anomaly": 254.2244,
        "meta_ephemeris_type": 0,
        "meta_classification_type": "U",
        "meta_norad_cat_id": 67134,
        "meta_element_set_no": 999,
        "meta_rev_at_epoch": 276,
        "meta_bstar": 0.00052153,
        "meta_mean_motion_dot": 0.00018332,
        "meta_mean_motion_ddot": 0,
        "tle_line1": "1 67134U 25301B   25361.14994536  .00018332  00000+0  52153-3 0  9995",
        "tle_line2": "2 67134  51.8730  55.5848 0003211 105.9096 254.2244 15.36181048  2764"
      },
      "geometry": {
        "type": "Point",
        "coordinates": [
          -147.274841141364,
          24.99059943336857
        ]
      }
    },
    {
      "type": "Feature",
      "properties": {
        "norad_id": 67135,
        "name": "KUIPER-00175",
        "group": "last-30-days",
        "lat": 10.138126539685407,
        "lon": -133.91899440512196,
        "alt_km": 455.8402216648283,
        "timestamp": "2025-12-27T10:28:57.518793+00:00",
        "meta_object_name": "KUIPER-00175",
        "meta_object_id": "2025-301C",
        "meta_epoch": "2025-12-27T03:30:57.672576",
        "meta_mean_motion": 15.36649318,
        "meta_eccentricity": 0.0002289,
        "meta_inclination": 51.8745,
        "meta_ra_of_asc_node": 55.5567,
        "meta_arg_of_pericenter": 55.9273,
        "meta_mean_anomaly": 304.193,
        "meta_ephemeris_type": 0,
        "meta_classification_type": "U",
        "meta_norad_cat_id": 67135,
        "meta_element_set_no": 999,
        "meta_rev_at_epoch": 265,
        "meta_bstar": 0.0010967,
        "meta_mean_motion_dot": 0.00039684,
        "meta_mean_motion_ddot": 0,
        "tle_line1": "1 67135U 25301C   25361.14650084  .00039684  00000+0  10967-2 0  9992",
        "tle_line2": "2 67135  51.8745  55.5567 0002289  55.9273 304.1930 15.36649318  2658"
      },
      "geometry": {
        "type": "Point",
        "coordinates": [
          -133.91899440512196,
          10.138126539685407
        ]
      }
    },
    {
      "type": "Feature",
      "properties": {
        "norad_id": 67136,
        "name": "KUIPER-00179",
        "group": "last-30-days",
        "lat": 19.51566019041944,
        "lon": -141.98025543984846,
        "alt_km": 453.42361751629323,
        "timestamp": "2025-12-27T10:28:57.518804+00:00",
        "meta_object_name": "KUIPER-00179",
        "meta_object_id": "2025-301D",
        "meta_epoch": "2025-12-27T03:34:02.489088",
        "meta_mean_motion": 15.36290989,
        "meta_eccentricity": 0.0003317,
        "meta_inclination": 51.8746,
        "meta_ra_of_asc_node": 55.5734,
        "meta_arg_of_pericenter": 105.3598,
        "meta_mean_anomaly": 254.7755,
        "meta_ephemeris_type": 0,
        "meta_classification_type": "U",
        "meta_norad_cat_id": 67136,
        "meta_element_set_no": 999,
        "meta_rev_at_epoch": 276,
        "meta_bstar": 0.0010797,
        "meta_mean_motion_dot": 0.00038606,
        "meta_mean_motion_ddot": 0,
        "tle_line1": "1 67136U 25301D   25361.14863992  .00038606  00000+0  10797-2 0  9991",
        "tle_line2": "2 67136  51.8746  55.5734 0003317 105.3598 254.7755 15.36290989  2762"
      },
      "geometry": {
        "type": "Point",
        "coordinates": [
          -141.98025543984846,
          19.51566019041944
        ]
      }
    },
    {
      "type": "Feature",
      "properties": {
        "norad_id": 67137,
        "name": "KUIPER-00181",
        "group": "last-30-days",
        "lat": 50.00127276859898,
        "lon": 123.79209053583635,
        "alt_km": 453.14774785702775,
        "timestamp": "2025-12-27T10:28:57.518814+00:00",
        "meta_object_name": "KUIPER-00181",
        "meta_object_id": "2025-301E",
        "meta_epoch": "2025-12-27T03:53:47.609376",
        "meta_mean_motion": 15.34490362,
        "meta_eccentricity": 0.0009917,
        "meta_inclination": 51.8649,
        "meta_ra_of_asc_node": 55.6689,
        "meta_arg_of_pericenter": 145.5501,
        "meta_mean_anomaly": 214.6129,
        "meta_ephemeris_type": 0,
        "meta_classification_type": "U",
        "meta_norad_cat_id": 67137,
        "meta_element_set_no": 999,
        "meta_rev_at_epoch": 274,
        "meta_bstar": 0.0010794,
        "meta_mean_motion_dot": 0.0003646,
        "meta_mean_motion_ddot": 0,
        "tle_line1": "1 67137U 25301E   25361.16235659  .00036460  00000+0  10794-2 0  9990",
        "tle_line2": "2 67137  51.8649  55.6689 0009917 145.5501 214.6129 15.34490362  2740"
      },
      "geometry": {
        "type": "Point",
        "coordinates": [
          123.79209053583635,
          50.00127276859898
        ]
      }
    },
    {
      "type": "Feature",
      "properties": {
        "norad_id": 67138,
        "name": "KUIPER-00183",
        "group": "last-30-days",
        "lat": 44.68889408441143,
        "lon": 105.37851869560791,
        "alt_km": 457.20208546426693,
        "timestamp": "2025-12-27T10:28:57.518824+00:00",
        "meta_object_name": "KUIPER-00183",
        "meta_object_id": "2025-301F",
        "meta_epoch": "2025-12-27T03:57:13.199904",
        "meta_mean_motion": 15.341526,
        "meta_eccentricity": 0.001122,
        "meta_inclination": 51.8627,
        "meta_ra_of_asc_node": 55.6817,
        "meta_arg_of_pericenter": 151.8896,
        "meta_mean_anomaly": 208.2697,
        "meta_ephemeris_type": 0,
        "meta_classification_type": "U",
        "meta_norad_cat_id": 67138,
        "meta_element_set_no": 999,
        "meta_rev_at_epoch": 275,
        "meta_bstar": 0.0011119,
        "meta_mean_motion_dot": 0.00037183,
        "meta_mean_motion_ddot": 0,
        "tle_line1": "1 67138U 25301F   25361.16473611  .00037183  00000+0  11119-2 0  9998",
        "tle_line2": "2 67138  51.8627  55.6817 0011220 151.8896 208.2697 15.34152600  2757"
      },
      "geometry": {
        "type": "Point",
        "coordinates": [
          105.37851869560791,
          44.68889408441143
        ]
      }
    },
    {
      "type": "Feature",
      "properties": {
        "norad_id": 67139,
        "name": "KUIPER-00184",
        "group": "last-30-days",
        "lat": 50.98383210610703,
        "lon": 130.19007937372112,
        "alt_km": 453.56141244956143,
        "timestamp": "2025-12-27T10:28:57.518838+00:00",
        "meta_object_name": "KUIPER-00184",
        "meta_object_id": "2025-301G",
        "meta_epoch": "2025-12-27T03:52:40.874016",
        "meta_mean_motion": 15.34393533,
        "meta_eccentricity": 0.000777,
        "meta_inclination": 51.8638,
        "meta_ra_of_asc_node": 55.6634,
        "meta_arg_of_pericenter": 146.9301,
        "meta_mean_anomaly": 213.2171,
        "meta_ephemeris_type": 0,
        "meta_classification_type": "U",
        "meta_norad_cat_id": 67139,
        "meta_element_set_no": 999,
        "meta_rev_at_epoch": 286,
        "meta_bstar": 0.0013269,
        "meta_mean_motion_dot": 0.00044791,
        "meta_mean_motion_ddot": 0,
        "tle_line1": "1 67139U 25301G   25361.16158419  .00044791  00000+0  13269-2 0  9996",
        "tle_line2": "2 67139  51.8638  55.6634 0007770 146.9301 213.2171 15.34393533  2865"
      },
      "geometry": {
        "type": "Point",
        "coordinates": [
          130.19007937372112,
          50.98383210610703
        ]
      }
    }
  ]
}